[{"OBJECT_NAME":"SHIYAN-1 (SY-1)","OBJECT_ID":"2004-012A","EPOCH":"2026-03-09T17:40:34.066560","MEAN_MOTION":15.31043463,"ECCENTRICITY":0.00058726,"INCLINATION":97.8764,"RA_OF_ASC_NODE":140.5238,"ARG_OF_PERICENTER":23.6952,"MEAN_ANOMALY":336.4557,"EPHEMERIS_TYPE":0,"CLASSIFICATION_TYPE":"U","NORAD_CAT_ID":28220,"ELEMENT_SET_NO":999,"REV_AT_EPOCH":19586,"BSTAR":0.00054854449,"MEAN_MOTION_DOT":0.00016393,"MEAN_MOTION_DDOT":0},{"OBJECT_NAME":"STARLINK-35557","OBJECT_ID":"2025-245D","EPOCH":"2026-03-09T21:07:55.885152","MEAN_MOTION":15.30205177,"ECCENTRICITY":9.795e-5,"INCLINATION":53.1571,"RA_OF_ASC_NODE":283.1634,"ARG_OF_PERICENTER":78.2594,"MEAN_ANOMALY":281.8517,"EPHEMERIS_TYPE":0,"CLASSIFICATION_TYPE":"U","NORAD_CAT_ID":66237,"ELEMENT_SET_NO":999,"REV_AT_EPOCH":2128,"BSTAR":0.00081218761,"MEAN_MOTION_DOT":0.00023776,"MEAN_MOTION_DDOT":0}]
